GLOBALSTAR M094 [+]     
1 39074U 13005C   24089.71682319 -.00000109  00000+0 -28888-4 0  9991
2 39074  51.9941  95.3965 0000432  58.9725 301.1184 12.62264182516246
GLOBALSTAR M096 [+]     
1 39075U 13005D   24089.88828276 -.00000085  00000+0  10626-3 0  9996
2 39075  52.0060 143.0438 0000379  62.7075 297.3831 12.62264062515182
GLOBALSTAR M078 [+]     
1 39076U 13005E   24089.78326368 -.00000074  00000+0  16763-3 0  9997
2 39076  51.9859 228.4801 0000368 258.8431 101.2394 12.62261741513794
GLOBALSTAR M095 [+]     
1 39077U 13005F   24089.65064906 -.00000080  00000+0  13408-3 0  9991
2 39077  51.9787 226.2969 0000278  31.5309 328.5574 12.62276391513630
